{
  "type": "FeatureCollection",
  "name": "st-lawrence-river-main-stream",
  "source": {
    "dataset": "OpenStreetMap",
    "copyright": "OpenStreetMap contributors",
    "license": "ODbL 1.0",
    "licenseUrl": "https://www.openstreetmap.org/copyright",
    "relationId": 6122656,
    "relationVersion": 37,
    "relationTimestamp": "2026-08-16T22:14:18Z",
    "sourceUrl": "https://www.openstreetmap.org/relation/6122656",
    "extraction": "The ordered main_stream members plus side_stream way 118630155, which bridges the relation's main channel through Montreal, were joined by shared endpoint node IDs. Ramer-Douglas-Peucker simplification at 0.005 degrees retained 96 of 457 source nodes without hand-authored coordinates."
  },
  "features": [
    {
      "type": "Feature",
      "properties": {
        "id": "st-lawrence-river",
        "label": "St. Lawrence River",
        "name": "Fleuve Saint-Laurent",
        "nameEn": "Saint Lawrence River",
        "wikidata": "Q134750",
        "relationId": 6122656,
        "sourceNodeCount": 457,
        "simplifiedNodeCount": 96,
        "simplificationToleranceDegrees": 0.005,
        "memberWayIds": [1053701443, 686977426, 1352397330, 1336576341, 758428438, 1338643419, 633323020, 111625848, 1357654671, 974447518, 480225389, 544867231, 633323019, 209278965, 633333405, 209278963, 758428446, 111771057, 974687645, 472237512, 118630155, 472238839, 758428441, 758428440, 115661812, 758428439, 249857578, 918286130, 758428445]
      },
      "geometry": {
        "type": "LineString",
        "coordinates": [[-76.1642432,44.2408546],[-76.1618056,44.2807222],[-76.1311667,44.2963889],[-76.0969722,44.2997222],[-76.0028527,44.360316],[-75.9218147,44.3769938],[-75.8961026,44.3967662],[-75.8527835,44.4523952],[-75.8279902,44.4621696],[-75.527706,44.6918533],[-75.3089644,44.8207334],[-75.3022051,44.8383784],[-75.2871046,44.8476577],[-74.9439639,44.9816839],[-74.8306378,45.0146329],[-74.7621822,45.0049738],[-74.6515889,45.0209358],[-74.4856272,45.0663575],[-74.4631921,45.0809824],[-74.4646303,45.1039277],[-74.4296835,45.1229065],[-74.4078237,45.1476607],[-74.2967856,45.2080841],[-74.1899378,45.2465809],[-74.1775452,45.2834937],[-74.1678113,45.2880423],[-74.1118121,45.3032911],[-74.0450983,45.2953015],[-73.9702285,45.3233966],[-73.8914682,45.3328405],[-73.7944574,45.3916156],[-73.7229889,45.4217849],[-73.6749063,45.4213688],[-73.6278476,45.4100756],[-73.539536,45.4215187],[-73.5187971,45.4653387],[-73.5401631,45.5085124],[-73.5405922,45.5264945],[-73.5003399,45.5747457],[-73.5005184,45.6094341],[-73.4592249,45.6676854],[-73.4412004,45.707498],[-73.3867838,45.7633318],[-73.2789534,45.8441109],[-73.1515806,46.0478622],[-73.0273248,46.072278],[-72.9253883,46.1496951],[-72.6885278,46.2563028],[-72.5836213,46.2927204],[-72.4530123,46.3827625],[-72.3714914,46.4120033],[-72.2518434,46.4392773],[-72.2235193,46.5037103],[-72.2029456,46.5295833],[-72.1673002,46.5525458],[-72.1157159,46.5689522],[-72.0338334,46.5727876],[-71.9688596,46.6209714],[-71.9307055,46.6334004],[-71.8653997,46.6774543],[-71.836337,46.6764153],[-71.787156,46.6516169],[-71.670598,46.6526774],[-71.6192712,46.6750608],[-71.5688028,46.6827751],[-71.528634,46.6994364],[-71.3792929,46.7216106],[-71.2806254,46.747117],[-71.2279611,46.7767985],[-71.1813017,46.8305896],[-70.9981157,46.8497434],[-70.855036,46.9165034],[-70.5267341,47.0345671],[-70.3596646,47.179417],[-70.311814,47.2442801],[-70.291078,47.3236664],[-70.0064458,47.5807176],[-69.6641109,47.8726031],[-69.5311554,48.074888],[-69.2404676,48.2893127],[-68.6694938,48.6066317],[-68.2737871,48.7901038],[-67.7237761,49.0233463],[-66.8855405,49.2752054],[-66.7391995,49.34839],[-66.6320828,49.4181225],[-66.4810208,49.4859718],[-66.1981229,49.580447],[-65.9564236,49.6302847],[-65.8130147,49.6504444],[-65.5883817,49.6605185],[-65.3466824,49.6356215],[-65.080264,49.5946916],[-64.9310101,49.5593019],[-64.6774965,49.4768378],[-64.3784112,49.3516857]]
      }
    }
  ]
}
