{
  "type": "FeatureCollection",
  "features": [
    {
      "type": "Feature",
      "properties": {
        "id": "co-asia-russia-mask",
        "continent": "Asia",
        "description": "C&O-only polygon mask for Asian Russia east of the simplified Ural boundary, including Siberia and far-eastern Arctic islands."
      },
      "geometry": {
        "type": "MultiPolygon",
        "coordinates": [
          [
            [
              [49.0, 38.0],
              [180.0, 38.0],
              [180.0, 83.5],
              [58.0, 83.5],
              [58.0, 70.0],
              [59.5, 66.5],
              [59.5, 63.0],
              [58.5, 60.0],
              [57.5, 57.0],
              [56.0, 54.0],
              [55.0, 51.0],
              [53.0, 48.0],
              [51.5, 46.0],
              [50.5, 44.0],
              [49.0, 38.0]
            ]
          ],
          [
            [
              [-180.0, 60.0],
              [-165.0, 60.0],
              [-165.0, 75.0],
              [-180.0, 75.0],
              [-180.0, 60.0]
            ]
          ]
        ]
      }
    }
  ]
}
