{
  "type": "FeatureCollection",
  "features": [
    {
      "type": "Feature",
      "properties": {
        "id": "co-europe-russia-mask",
        "continent": "Europe",
        "description": "C&O-only polygon mask for European Russia west of the simplified Ural boundary, plus western Russian Arctic island groups treated as Europe."
      },
      "geometry": {
        "type": "MultiPolygon",
        "coordinates": [
          [
            [
              [19.0, 38.0],
              [49.0, 38.0],
              [50.5, 44.0],
              [51.5, 46.0],
              [53.0, 48.0],
              [55.0, 51.0],
              [56.0, 54.0],
              [57.5, 57.0],
              [58.5, 60.0],
              [59.5, 63.0],
              [59.5, 66.5],
              [58.0, 70.0],
              [19.0, 70.0],
              [19.0, 38.0]
            ]
          ],
          [
            [
              [53.50829, 73.749814],
              [55.902459, 74.627486],
              [55.631933, 75.081412],
              [57.868644, 75.60939],
              [61.170044, 76.251883],
              [64.498368, 76.439055],
              [66.210977, 76.809782],
              [68.15706, 76.939697],
              [68.852211, 76.544811],
              [68.180573, 76.233642],
              [64.637326, 75.737755],
              [61.583508, 75.260885],
              [58.477082, 74.309056],
              [56.986786, 73.333044],
              [55.419336, 72.371268],
              [55.622838, 71.540595],
              [57.535693, 70.720464],
              [56.944979, 70.632743],
              [53.677375, 70.762658],
              [53.412017, 71.206662],
              [51.601895, 71.474759],
              [51.455754, 72.014881],
              [52.478275, 72.229442],
              [52.444169, 72.774731],
              [54.427614, 73.627548],
              [53.50829, 73.749814]
            ]
          ],
          [
            [
              [44.846958, 80.58981],
              [46.799139, 80.771918],
              [48.318477, 80.78401],
              [48.522806, 80.514569],
              [49.09719, 80.753986],
              [50.039768, 80.918885],
              [51.522933, 80.699726],
              [51.136187, 80.54728],
              [49.793685, 80.415428],
              [48.894411, 80.339567],
              [48.754937, 80.175468],
              [47.586119, 80.010181],
              [46.502826, 80.247247],
              [47.072455, 80.559424],
              [44.846958, 80.58981]
            ]
          ]
        ]
      }
    }
  ]
}
