{"type":"FeatureCollection","name":"maplibre-us-new-england-states","source":"U.S. Census Bureau TIGERweb Generalized_ACS2023 State_County MapServer layer 7, public domain/CC0 via data.gov metadata","features":[{"type":"Feature","properties":{"id":"connecticut","name":"Connecticut","state":"CT","fips":"09","source":"U.S. Census TIGERweb ACS2023 generalized state layer"},"geometry":{"type":"MultiPolygon","coordinates":[[[[-73.7278,41.1007],[-73.6568,40.9877],[-73.1778,41.1667],[-73.103,41.1514],[-73.082,41.193],[-73.0145,41.2047],[-72.9131,41.2967],[-72.8946,41.2425],[-72.7621,41.2677],[-72.7061,41.2439],[-72.6657,41.2701],[-72.3676,41.2635],[-72.3426,41.2688],[-72.3505,41.3118],[-72.3178,41.2778],[-72.2058,41.2859],[-72.1841,41.324],[-72.1118,41.2991],[-71.9457,41.3378],[-71.8575,41.3208],[-71.8294,41.3424],[-71.8426,41.4099],[-71.7977,41.4167],[-71.8006,42.0236],[-72.7558,42.0362],[-72.7667,42.003],[-72.8167,41.9976],[-72.8135,42.0365],[-73.4873,42.0496],[-73.551,41.2954],[-73.4827,41.2128],[-73.7278,41.1007]]],[[[-72.2259,41.2938],[-72.2239,41.2935],[-72.2238,41.2949],[-72.2259,41.2938]]],[[[-72.7614,41.2423],[-72.7403,41.2565],[-72.7589,41.2538],[-72.7614,41.2423]]],[[[-72.7643,41.2592],[-72.7612,41.259],[-72.7623,41.2604],[-72.7643,41.2592]]],[[[-73.2172,41.1439],[-73.2153,41.1426],[-73.215,41.1445],[-73.2172,41.1439]]],[[[-73.3642,41.0889],[-73.3698,41.0888],[-73.3551,41.0835],[-73.3642,41.0889]]],[[[-73.3942,41.0674],[-73.3862,41.0584],[-73.3813,41.0707],[-73.3942,41.0674]]],[[[-73.4169,41.0539],[-73.4222,41.0476],[-73.3991,41.061],[-73.4169,41.0539]]],[[[-73.6134,40.9889],[-73.6125,40.9875],[-73.6076,40.9904],[-73.6134,40.9889]]],[[[-73.6306,40.9807],[-73.6219,40.9825],[-73.6295,40.9836],[-73.6306,40.9807]]],[[[-73.6458,40.996],[-73.6391,40.9895],[-73.6384,40.9941],[-73.6458,40.996]]]]}},{"type":"Feature","properties":{"id":"new-hampshire","name":"New Hampshire","state":"NH","fips":"33","source":"U.S. Census TIGERweb ACS2023 generalized state layer"},"geometry":{"type":"MultiPolygon","coordinates":[[[[-72.5572,42.853],[-72.5161,42.7659],[-72.4585,42.7269],[-71.2942,42.697],[-71.2455,42.7426],[-71.1818,42.7376],[-71.1656,42.8087],[-71.0642,42.8063],[-71.0312,42.8591],[-70.9149,42.8866],[-70.8173,42.8723],[-70.7121,43.0437],[-70.7065,43.0753],[-70.8281,43.1291],[-70.8179,43.2379],[-70.9672,43.3438],[-70.9876,43.3895],[-70.9508,43.551],[-70.9727,43.5703],[-71.0839,45.3055],[-71.1479,45.2393],[-71.2311,45.2497],[-71.2844,45.3024],[-71.3849,45.2334],[-71.4434,45.2377],[-71.3978,45.2036],[-71.4288,45.1239],[-71.5051,45.0515],[-71.5011,45.0133],[-71.4646,45.0136],[-71.5413,44.9851],[-71.4949,44.9043],[-71.6319,44.7525],[-71.5354,44.5871],[-71.5961,44.5609],[-71.5768,44.5026],[-71.7022,44.4138],[-71.7939,44.3993],[-71.8144,44.3545],[-71.9811,44.3375],[-72.0654,44.2772],[-72.0318,44.0785],[-72.117,43.9945],[-72.0914,43.9655],[-72.1727,43.8843],[-72.2051,43.7711],[-72.2996,43.7063],[-72.3285,43.6008],[-72.3801,43.5736],[-72.416,43.3765],[-72.3955,43.313],[-72.4571,43.1485],[-72.433,43.1197],[-72.4674,43.0526],[-72.4438,43.0062],[-72.5322,42.9549],[-72.5572,42.853]]],[[[-70.617,42.9772],[-70.614,42.9733],[-70.6106,42.9764],[-70.617,42.9772]]],[[[-70.6268,42.9695],[-70.6261,42.9677],[-70.6225,42.9675],[-70.6268,42.9695]]],[[[-70.6279,42.9763],[-70.6243,42.9767],[-70.6269,42.9782],[-70.6279,42.9763]]]]}},{"type":"Feature","properties":{"id":"maine","name":"Maine","state":"ME","fips":"23","source":"U.S. Census TIGERweb ACS2023 generalized state layer"},"geometry":{"type":"MultiPolygon","coordinates":[[[[-71.08,45.307],[-70.9891,43.7924],[-70.9508,43.551],[-70.9876,43.3895],[-70.8096,43.2254],[-70.8268,43.1271],[-70.7038,43.0598],[-70.5904,43.1652],[-70.5939,43.2493],[-70.5539,43.3219],[-70.4163,43.3611],[-70.4277,43.3893],[-70.3328,43.4464],[-70.3829,43.4697],[-70.3612,43.5292],[-70.1969,43.5651],[-70.253,43.675],[-70.2147,43.6973],[-70.1943,43.7686],[-70.0805,43.8276],[-70.0666,43.8105],[-70.0192,43.8587],[-69.9877,43.8629],[-70.0262,43.8226],[-69.9472,43.8645],[-70.045,43.7367],[-69.9946,43.7435],[-70.0013,43.7104],[-69.9563,43.7724],[-69.8734,43.7784],[-69.8368,43.6997],[-69.7216,43.782],[-69.6771,43.927],[-69.6904,43.8254],[-69.6556,43.781],[-69.6388,43.8478],[-69.6211,43.8268],[-69.5947,43.8589],[-69.5929,43.8114],[-69.5517,43.8346],[-69.5439,43.8816],[-69.5033,43.8377],[-69.4377,43.9758],[-69.4282,43.9573],[-69.3624,43.9939],[-69.3667,43.9648],[-69.3301,43.9718],[-69.3752,43.9246],[-69.3253,43.9709],[-69.3175,43.9405],[-69.2675,43.9437],[-69.2739,43.9142],[-69.2121,43.9311],[-69.1626,43.999],[-69.1253,43.9779],[-69.1281,44.0173],[-69.0434,44.0922],[-69.1034,44.0779],[-69.0742,44.1835],[-69.0545,44.1715],[-69.0592,44.2079],[-68.9499,44.34],[-68.9984,44.4256],[-68.9216,44.4566],[-68.8752,44.4299],[-68.8111,44.4661],[-68.8351,44.4814],[-68.8059,44.5243],[-68.7778,44.485],[-68.8218,44.4089],[-68.8272,44.3122],[-68.7393,44.3332],[-68.6894,44.2967],[-68.6243,44.3021],[-68.5228,44.2281],[-68.5551,44.2613],[-68.519,44.2652],[-68.5662,44.313],[-68.5454,44.355],[-68.5652,44.3991],[-68.4997,44.4142],[-68.4798,44.4542],[-68.4622,44.3794],[-68.4731,44.4867],[-68.4253,44.4983],[-68.4308,44.397],[-68.3928,44.4353],[-68.3543,44.4005],[-68.398,44.3762],[-68.4309,44.2986],[-68.3338,44.2213],[-68.2899,44.2509],[-68.3172,44.2943],[-68.2309,44.2878],[-68.1745,44.3452],[-68.2474,44.4333],[-68.3657,44.4353],[-68.355,44.4581],[-68.2806,44.4516],[-68.2941,44.4717],[-68.2609,44.4881],[-68.2238,44.4655],[-68.2114,44.5201],[-68.1946,44.4719],[-68.1544,44.4788],[-68.1618,44.5012],[-68.1213,44.4789],[-68.1123,44.4016],[-68.0493,44.3307],[-68.0232,44.4082],[-67.9588,44.3988],[-68.0275,44.4825],[-67.9704,44.4708],[-67.9377,44.4104],[-67.9169,44.4613],[-67.8986,44.3956],[-67.8478,44.563],[-67.7824,44.515],[-67.7548,44.5469],[-67.7434,44.4974],[-67.7131,44.4936],[-67.6881,44.5373],[-67.5647,44.5321],[-67.5434,44.6266],[-67.5058,44.6368],[-67.4584,44.5967],[-67.4273,44.6411],[-67.4055,44.5942],[-67.362,44.6402],[-67.3964,44.6933],[-67.3085,44.7075],[-67.3262,44.6567],[-67.2464,44.6264],[-67.2728,44.6641],[-67.1894,44.6455],[-67.0689,44.769],[-66.9499,44.8174],[-66.9824,44.8115],[-66.9845,44.9126],[-67.1062,45.0331],[-67.0908,45.0687],[-67.1579,45.161],[-67.2836,45.192],[-67.2962,45.148],[-67.3456,45.1264],[-67.4046,45.1599],[-67.4893,45.2813],[-67.4187,45.3773],[-67.5038,45.4885],[-67.4165,45.5021],[-67.4297,45.5838],[-67.6458,45.6136],[-67.7095,45.6814],[-67.7346,45.689],[-67.7304,45.6632],[-67.8179,45.6937],[-67.7819,45.7312],[-67.8066,45.7947],[-67.7551,45.8237],[-67.8039,45.8829],[-67.7504,45.9179],[-67.7811,45.943],[-67.7905,47.0679],[-67.8838,47.1058],[-67.9568,47.1992],[-68.2346,47.355],[-68.3616,47.3556],[-68.3787,47.2876],[-68.5786,47.2876],[-68.6124,47.2448],[-68.7179,47.2409],[-68.9001,47.1777],[-69.0503,47.2559],[-69.0427,47.4267],[-69.2244,47.4597],[-69.9971,46.6952],[-70.0569,46.4152],[-70.1915,46.35],[-70.2927,46.1916],[-70.2367,46.1449],[-70.2524,46.1006],[-70.3011,46.0833],[-70.2783,46.057],[-70.3176,46.0195],[-70.2846,45.9954],[-70.3169,45.9635],[-70.2402,45.9437],[-70.2591,45.8908],[-70.4177,45.7946],[-70.4004,45.7198],[-70.5584,45.6667],[-70.7228,45.5128],[-70.6275,45.4216],[-70.6347,45.3836],[-70.798,45.4267],[-70.826,45.3984],[-70.8086,45.3116],[-70.857,45.2292],[-70.8969,45.242],[-70.9524,45.3391],[-71.0108,45.3472],[-71.009,45.319],[-71.08,45.307]]],[[[-67.3226,44.6116],[-67.308,44.5972],[-67.261,44.6087],[-67.3226,44.6116]]],[[[-67.3313,44.6527],[-67.3344,44.6485],[-67.3272,44.6513],[-67.3313,44.6527]]],[[[-67.338,44.6798],[-67.3339,44.6779],[-67.3301,44.6839],[-67.338,44.6798]]],[[[-67.3558,44.6423],[-67.3539,44.6411],[-67.3522,44.6448],[-67.3558,44.6423]]],[[[-67.3596,44.5797],[-67.3553,44.5762],[-67.3506,44.5842],[-67.3596,44.5797]]],[[[-67.3615,44.6489],[-67.3567,44.6468],[-67.3567,44.6539],[-67.3615,44.6489]]],[[[-67.3679,44.57],[-67.3672,44.5674],[-67.3614,44.5731],[-67.3679,44.57]]],[[[-67.3693,44.6691],[-67.356,44.6636],[-67.3503,44.6693],[-67.3693,44.6691]]],[[[-67.3741,44.5932],[-67.3667,44.5997],[-67.3686,44.6019],[-67.3741,44.5932]]],[[[-67.3931,44.5984],[-67.3903,44.5957],[-67.3836,44.6017],[-67.3931,44.5984]]],[[[-67.3961,44.5745],[-67.3959,44.5725],[-67.3922,44.5744],[-67.3961,44.5745]]],[[[-67.3967,44.5885],[-67.3961,44.5832],[-67.3926,44.5849],[-67.3967,44.5885]]],[[[-67.4077,44.5728],[-67.4062,44.568],[-67.4036,44.5751],[-67.4077,44.5728]]],[[[-67.4295,44.5974],[-67.4278,44.5953],[-67.4262,44.5974],[-67.4295,44.5974]]],[[[-67.4439,44.5554],[-67.4316,44.5573],[-67.4334,44.5589],[-67.4439,44.5554]]],[[[-67.4649,44.571],[-67.4537,44.5724],[-67.4577,44.5755],[-67.4649,44.571]]],[[[-67.4745,44.5683],[-67.4742,44.5666],[-67.4696,44.568],[-67.4745,44.5683]]],[[[-67.4833,44.561],[-67.4816,44.5601],[-67.4784,44.5651],[-67.4833,44.561]]],[[[-67.4913,44.6037],[-67.4915,44.6017],[-67.4865,44.6001],[-67.4913,44.6037]]],[[[-67.5074,44.6228],[-67.5039,44.6171],[-67.4977,44.6215],[-67.5074,44.6228]]],[[[-67.5369,44.5321],[-67.5338,44.5292],[-67.5292,44.532],[-67.5369,44.5321]]],[[[-67.5416,44.5893],[-67.5184,44.5542],[-67.4891,44.5597],[-67.52,44.5797],[-67.4815,44.5804],[-67.5416,44.5893]]],[[[-67.5638,44.5105],[-67.539,44.4721],[-67.5106,44.4964],[-67.5638,44.5105]]],[[[-67.6027,44.4442],[-67.6,44.4418],[-67.5956,44.4441],[-67.6027,44.4442]]],[[[-67.6119,44.4527],[-67.6087,44.4436],[-67.6056,44.4459],[-67.6119,44.4527]]],[[[-67.6213,44.5078],[-67.5892,44.4473],[-67.5666,44.4558],[-67.5773,44.5217],[-67.6213,44.5078]]],[[[-67.6229,44.4645],[-67.6184,44.4602],[-67.6158,44.4614],[-67.6229,44.4645]]],[[[-67.6348,44.4907],[-67.6315,44.4877],[-67.6296,44.4987],[-67.6348,44.4907]]],[[[-67.6489,44.5111],[-67.6417,44.5046],[-67.6256,44.5133],[-67.6489,44.5111]]],[[[-67.6629,44.5146],[-67.6586,44.5131],[-67.6593,44.516],[-67.6629,44.5146]]],[[[-67.6693,44.5244],[-67.6652,44.5217],[-67.6586,44.5308],[-67.6693,44.5244]]],[[[-67.6738,44.4905],[-67.6719,44.4878],[-67.6629,44.4944],[-67.6738,44.4905]]],[[[-67.6767,44.4704],[-67.6738,44.4655],[-67.6726,44.4733],[-67.6767,44.4704]]],[[[-67.6769,44.463],[-67.6695,44.4606],[-67.6686,44.4627],[-67.6769,44.463]]],[[[-67.6776,44.4827],[-67.6732,44.4759],[-67.6639,44.4848],[-67.6776,44.4827]]],[[[-67.6988,44.4878],[-67.6986,44.4851],[-67.6927,44.4836],[-67.6988,44.4878]]],[[[-67.7086,44.4607],[-67.7049,44.4581],[-67.7044,44.4606],[-67.7086,44.4607]]],[[[-67.7408,44.4701],[-67.7377,44.463],[-67.7332,44.4652],[-67.7408,44.4701]]],[[[-67.7467,44.4652],[-67.7451,44.4623],[-67.7432,44.4635],[-67.7467,44.4652]]],[[[-67.7593,44.4983],[-67.7515,44.4948],[-67.753,44.5051],[-67.7593,44.4983]]],[[[-67.7665,44.531],[-67.7622,44.5293],[-67.7589,44.5313],[-67.7665,44.531]]],[[[-67.766,44.5376],[-67.7674,44.5344],[-67.7613,44.5374],[-67.766,44.5376]]],[[[-67.7922,44.4808],[-67.789,44.4724],[-67.7798,44.4771],[-67.7922,44.4808]]],[[[-67.8059,44.5173],[-67.8024,44.5129],[-67.804,44.5191],[-67.8059,44.5173]]],[[[-67.8195,44.5106],[-67.7967,44.4828],[-67.7912,44.4939],[-67.8195,44.5106]]],[[[-67.8259,44.4428],[-67.8217,44.4422],[-67.8211,44.4454],[-67.8259,44.4428]]],[[[-67.8359,44.5366],[-67.8242,44.5176],[-67.8257,44.5408],[-67.8359,44.5366]]],[[[-67.8349,44.4854],[-67.8321,44.4796],[-67.8226,44.4873],[-67.8349,44.4854]]],[[[-67.8395,44.5444],[-67.8259,44.5495],[-67.8361,44.5522],[-67.8395,44.5444]]],[[[-67.8421,44.4623],[-67.8385,44.4509],[-67.8327,44.4532],[-67.8421,44.4623]]],[[[-67.854,44.4508],[-67.854,44.4481],[-67.8452,44.4498],[-67.854,44.4508]]],[[[-67.8744,44.3743],[-67.8644,44.3668],[-67.8713,44.3747],[-67.8744,44.3743]]],[[[-67.8756,44.4457],[-67.8551,44.4187],[-67.863,44.4545],[-67.8756,44.4457]]],[[[-68.0352,44.3327],[-68.0315,44.3251],[-68.0291,44.336],[-68.0352,44.3327]]],[[[-68.1038,44.3644],[-68.0947,44.3514],[-68.0971,44.362],[-68.1038,44.3644]]],[[[-68.1323,44.4187],[-68.128,44.4067],[-68.1178,44.4095],[-68.1323,44.4187]]],[[[-68.142,44.4359],[-68.1339,44.4274],[-68.1249,44.4454],[-68.142,44.4359]]],[[[-68.1492,44.387],[-68.1339,44.3793],[-68.1294,44.4048],[-68.1492,44.387]]],[[[-68.1603,44.4671],[-68.1518,44.4583],[-68.1456,44.4574],[-68.1603,44.4671]]],[[[-68.1663,44.4067],[-68.1658,44.4004],[-68.1546,44.4134],[-68.1663,44.4067]]],[[[-68.1817,44.4042],[-68.1765,44.4026],[-68.1758,44.4056],[-68.1817,44.4042]]],[[[-68.1841,44.388],[-68.182,44.3853],[-68.1779,44.3864],[-68.1841,44.388]]],[[[-68.19,44.4686],[-68.1663,44.463],[-68.1739,44.4672],[-68.19,44.4686]]],[[[-68.1967,44.4002],[-68.1917,44.3988],[-68.1909,44.4012],[-68.1967,44.4002]]],[[[-68.2036,44.2428],[-68.1931,44.239],[-68.1977,44.2463],[-68.2036,44.2428]]],[[[-68.2041,44.4951],[-68.2064,44.493],[-68.1998,44.4917],[-68.2041,44.4951]]],[[[-68.2129,44.4766],[-68.2038,44.475],[-68.2045,44.4774],[-68.2129,44.4766]]],[[[-68.214,44.3988],[-68.2022,44.3974],[-68.2026,44.4004],[-68.214,44.3988]]],[[[-68.241,44.2528],[-68.2114,44.2569],[-68.2353,44.2663],[-68.241,44.2528]]],[[[-68.2489,44.1758],[-68.2455,44.1702],[-68.2392,44.1746],[-68.2489,44.1758]]],[[[-68.253,44.1551],[-68.2436,44.1428],[-68.2423,44.1574],[-68.253,44.1551]]],[[[-68.2701,44.2758],[-68.2632,44.2703],[-68.2457,44.2742],[-68.2701,44.2758]]],[[[-68.2694,44.2856],[-68.2706,44.2833],[-68.2661,44.2827],[-68.2694,44.2856]]],[[[-68.2747,44.2587],[-68.2744,44.2371],[-68.2431,44.241],[-68.2747,44.2587]]],[[[-68.3041,44.2838],[-68.3029,44.277],[-68.291,44.2759],[-68.3041,44.2838]]],[[[-68.3424,44.1937],[-68.3143,44.1976],[-68.3334,44.2087],[-68.3424,44.1937]]],[[[-68.3452,44.4364],[-68.3417,44.4286],[-68.3345,44.4326],[-68.3452,44.4364]]],[[[-68.354,44.1802],[-68.3488,44.1674],[-68.3348,44.1768],[-68.354,44.1802]]],[[[-68.366,44.1255],[-68.3642,44.1242],[-68.3615,44.1274],[-68.366,44.1255]]],[[[-68.3726,44.1432],[-68.3685,44.1391],[-68.3697,44.1454],[-68.3726,44.1432]]],[[[-68.3754,44.1163],[-68.3667,44.0974],[-68.3305,44.1092],[-68.3754,44.1163]]],[[[-68.376,44.1874],[-68.3704,44.1802],[-68.3498,44.1954],[-68.376,44.1874]]],[[[-68.3821,44.1441],[-68.3809,44.1391],[-68.3771,44.1448],[-68.3821,44.1441]]],[[[-68.3942,44.4097],[-68.3842,44.4063],[-68.3892,44.4133],[-68.3942,44.4097]]],[[[-68.4072,44.1111],[-68.4037,44.1077],[-68.4013,44.1113],[-68.4072,44.1111]]],[[[-68.4356,44.2935],[-68.4321,44.2859],[-68.4301,44.2882],[-68.4356,44.2935]]],[[[-68.4562,44.3118],[-68.4489,44.2975],[-68.4482,44.312],[-68.4562,44.3118]]],[[[-68.4569,44.3443],[-68.4318,44.3242],[-68.4208,44.3752],[-68.4569,44.3443]]],[[[-68.4612,44.2601],[-68.4584,44.2542],[-68.4534,44.2562],[-68.4612,44.2601]]],[[[-68.4698,44.2152],[-68.465,44.2099],[-68.4679,44.2162],[-68.4698,44.2152]]],[[[-68.4701,44.2016],[-68.4538,44.2017],[-68.4648,44.207],[-68.4701,44.2016]]],[[[-68.4778,44.102],[-68.473,44.0982],[-68.4698,44.1014],[-68.4778,44.102]]],[[[-68.4826,44.2278],[-68.4795,44.2198],[-68.4676,44.2247],[-68.4826,44.2278]]],[[[-68.4907,44.2027],[-68.4712,44.2073],[-68.4814,44.2169],[-68.4907,44.2027]]],[[[-68.4933,44.2826],[-68.4866,44.2691],[-68.4688,44.2635],[-68.4933,44.2826]]],[[[-68.5038,44.1456],[-68.501,44.1416],[-68.4978,44.1431],[-68.5038,44.1456]]],[[[-68.5012,44.154],[-68.4558,44.1603],[-68.4385,44.1162],[-68.3833,44.1558],[-68.4515,44.1916],[-68.5012,44.154]]],[[[-68.5187,44.1132],[-68.5036,44.0966],[-68.4909,44.1234],[-68.5187,44.1132]]],[[[-68.5304,44.3336],[-68.4788,44.3196],[-68.5014,44.3823],[-68.5304,44.3336]]],[[[-68.553,44.2276],[-68.5449,44.2203],[-68.5283,44.2252],[-68.553,44.2276]]],[[[-68.5593,44.045],[-68.556,44.0395],[-68.555,44.0492],[-68.5593,44.045]]],[[[-68.5725,44.2169],[-68.5646,44.2119],[-68.5596,44.2131],[-68.5725,44.2169]]],[[[-68.5791,44.0976],[-68.5765,44.0952],[-68.5713,44.1],[-68.5791,44.0976]]],[[[-68.5886,44.1469],[-68.5851,44.1425],[-68.5787,44.1482],[-68.5886,44.1469]]],[[[-68.5893,44.2313],[-68.5872,44.2264],[-68.576,44.2293],[-68.5893,44.2313]]],[[[-68.5922,44.0675],[-68.5906,44.0587],[-68.5841,44.0716],[-68.5922,44.0675]]],[[[-68.5986,44.1459],[-68.595,44.1423],[-68.5934,44.1452],[-68.5986,44.1459]]],[[[-68.6055,44.1788],[-68.6069,44.176],[-68.5968,44.1756],[-68.6055,44.1788]]],[[[-68.6103,44.1431],[-68.6055,44.1355],[-68.6015,44.1387],[-68.6103,44.1431]]],[[[-68.6212,44.1506],[-68.6096,44.1482],[-68.6133,44.1576],[-68.6212,44.1506]]],[[[-68.6217,44.1425],[-68.6171,44.1367],[-68.6176,44.1423],[-68.6217,44.1425]]],[[[-68.6274,44.1252],[-68.619,44.1195],[-68.6081,44.1286],[-68.6274,44.1252]]],[[[-68.6345,44.1377],[-68.6269,44.1338],[-68.6269,44.1353],[-68.6345,44.1377]]],[[[-68.635,44.1513],[-68.6338,44.145],[-68.6238,44.1479],[-68.635,44.1513]]],[[[-68.64,44.1281],[-68.6398,44.1236],[-68.6297,44.1288],[-68.64,44.1281]]],[[[-68.6476,44.1339],[-68.6445,44.131],[-68.6412,44.1355],[-68.6476,44.1339]]],[[[-68.6497,44.1488],[-68.644,44.1486],[-68.6407,44.1527],[-68.6497,44.1488]]],[[[-68.6554,44.1459],[-68.6526,44.1411],[-68.649,44.143],[-68.6554,44.1459]]],[[[-68.6579,44.1289],[-68.6516,44.1264],[-68.6504,44.1281],[-68.6579,44.1289]]],[[[-68.6588,44.1102],[-68.6372,44.0994],[-68.6412,44.1086],[-68.6588,44.1102]]],[[[-68.6711,44.0759],[-68.6409,44.0506],[-68.657,44.0038],[-68.6017,44.0125],[-68.6086,44.0943],[-68.6711,44.0759]]],[[[-68.6863,44.2886],[-68.686,44.2859],[-68.6834,44.2858],[-68.6863,44.2886]]],[[[-68.687,44.2752],[-68.6845,44.2724],[-68.6857,44.2771],[-68.687,44.2752]]],[[[-68.7316,44.2227],[-68.7206,44.1668],[-68.6662,44.135],[-68.6205,44.2002],[-68.5634,44.1942],[-68.6706,44.2799],[-68.7316,44.2227]]],[[[-68.7432,44.3015],[-68.702,44.271],[-68.6864,44.2839],[-68.7432,44.3015]]],[[[-68.7497,44.3011],[-68.7477,44.2991],[-68.7475,44.3007],[-68.7497,44.3011]]],[[[-68.7512,43.8854],[-68.7418,43.883],[-68.7317,43.8935],[-68.7512,43.8854]]],[[[-68.7575,44.2706],[-68.754,44.2626],[-68.7305,44.2627],[-68.7575,44.2706]]],[[[-68.7647,44.2456],[-68.7607,44.2398],[-68.7498,44.2429],[-68.7647,44.2456]]],[[[-68.7873,44.2114],[-68.78,44.201],[-68.7676,44.2173],[-68.7873,44.2114]]],[[[-68.7899,44.14],[-68.7922,44.1368],[-68.7811,44.1449],[-68.7899,44.14]]],[[[-68.7981,44.2853],[-68.7952,44.2805],[-68.7852,44.2841],[-68.7981,44.2853]]],[[[-68.7994,44.2359],[-68.7971,44.2238],[-68.7812,44.2263],[-68.7994,44.2359]]],[[[-68.8035,44.1415],[-68.8025,44.1374],[-68.7914,44.147],[-68.8035,44.1415]]],[[[-68.8109,44.2952],[-68.8135,44.2947],[-68.8004,44.2887],[-68.8109,44.2952]]],[[[-68.8256,44.2924],[-68.8192,44.2904],[-68.8175,44.2933],[-68.8256,44.2924]]],[[[-68.8265,44.1364],[-68.808,44.1373],[-68.8056,44.1429],[-68.8265,44.1364]]],[[[-68.8265,43.8477],[-68.8112,43.8602],[-68.8158,43.8616],[-68.8265,43.8477]]],[[[-68.8294,44.261],[-68.8239,44.2571],[-68.8163,44.2584],[-68.8294,44.261]]],[[[-68.8304,44.2168],[-68.8223,44.2182],[-68.8249,44.2261],[-68.8304,44.2168]]],[[[-68.8314,44.2337],[-68.8187,44.2264],[-68.8156,44.2378],[-68.8314,44.2337]]],[[[-68.8513,44.2331],[-68.8482,44.2293],[-68.8492,44.2361],[-68.8513,44.2331]]],[[[-68.863,44.259],[-68.8601,44.2559],[-68.8589,44.2606],[-68.863,44.259]]],[[[-68.8931,44.0366],[-68.8914,44.0299],[-68.8843,44.0308],[-68.8931,44.0366]]],[[[-68.8991,43.8219],[-68.8762,43.8366],[-68.8911,43.8355],[-68.8991,43.8219]]],[[[-68.9059,43.8538],[-68.8817,43.8686],[-68.8962,43.873],[-68.9059,43.8538]]],[[[-68.9083,44.0613],[-68.8952,44.0493],[-68.8943,44.0649],[-68.9083,44.0613]]],[[[-68.9118,44.0964],[-68.8628,44.025],[-68.7745,44.0644],[-68.8396,44.132],[-68.9118,44.0964]]],[[[-68.9161,44.0475],[-68.9063,44.0449],[-68.9104,44.0531],[-68.9161,44.0475]]],[[[-68.9423,44.2844],[-68.9302,44.231],[-68.8604,44.3649],[-68.8801,44.3931],[-68.9423,44.2844]]],[[[-68.9443,44.1127],[-68.8021,44.1506],[-68.8461,44.1844],[-68.9443,44.1127]]],[[[-68.9519,44.2196],[-68.9397,44.2265],[-68.9318,44.2486],[-68.9519,44.2196]]],[[[-68.9647,44.1946],[-68.9587,44.1921],[-68.9535,44.2083],[-68.9647,44.1946]]],[[[-68.9656,44.2554],[-68.9459,44.2483],[-68.9333,44.2728],[-68.9656,44.2554]]],[[[-68.9835,44.1751],[-68.9841,44.1721],[-68.9801,44.1726],[-68.9835,44.1751]]],[[[-69.0145,43.9087],[-69.0129,43.901],[-69.0048,43.9013],[-69.0145,43.9087]]],[[[-69.0376,43.9162],[-69.0355,43.9114],[-69.0298,43.9153],[-69.0376,43.9162]]],[[[-69.0462,44.0762],[-69.032,44.0793],[-69.0381,44.0858],[-69.0462,44.0762]]],[[[-69.0511,44.067],[-69.0481,44.0604],[-69.0428,44.0682],[-69.0511,44.067]]],[[[-69.0599,44.0016],[-69.0547,43.9929],[-69.0426,44.007],[-69.0599,44.0016]]],[[[-69.0725,44.0122],[-69.0716,44.0048],[-69.0561,44.0122],[-69.0725,44.0122]]],[[[-69.0733,44.0409],[-69.0723,44.0366],[-69.0668,44.0405],[-69.0733,44.0409]]],[[[-69.0831,43.9815],[-69.0785,43.973],[-69.0725,43.9787],[-69.0831,43.9815]]],[[[-69.0961,43.984],[-69.0696,43.9859],[-69.0654,43.9944],[-69.0961,43.984]]],[[[-69.1325,43.8713],[-69.1206,43.8717],[-69.1189,43.8983],[-69.1325,43.8713]]],[[[-69.2258,43.9188],[-69.2129,43.9214],[-69.2225,43.9254],[-69.2258,43.9188]]],[[[-69.2966,43.8713],[-69.2825,43.8646],[-69.2835,43.8737],[-69.2966,43.8713]]],[[[-69.3003,43.9371],[-69.2859,43.9314],[-69.293,43.9424],[-69.3003,43.9371]]],[[[-69.3147,43.9173],[-69.3099,43.9063],[-69.3074,43.9181],[-69.3147,43.9173]]],[[[-69.3229,43.9016],[-69.308,43.891],[-69.3141,43.9023],[-69.3229,43.9016]]],[[[-69.3235,43.8606],[-69.3059,43.8774],[-69.3186,43.8797],[-69.3235,43.8606]]],[[[-69.3236,43.759],[-69.3004,43.7721],[-69.3136,43.7728],[-69.3236,43.759]]],[[[-69.3517,43.9272],[-69.3465,43.9225],[-69.3406,43.9338],[-69.3517,43.9272]]],[[[-69.3847,43.9092],[-69.3835,43.8957],[-69.3709,43.9127],[-69.3847,43.9092]]],[[[-69.3957,43.9606],[-69.3915,43.9577],[-69.3873,43.9672],[-69.3957,43.9606]]],[[[-69.428,43.9222],[-69.4273,43.9123],[-69.422,43.923],[-69.428,43.9222]]],[[[-69.4419,43.9163],[-69.4201,43.9359],[-69.433,43.9521],[-69.4419,43.9163]]],[[[-69.5889,43.7748],[-69.5815,43.7719],[-69.5829,43.7791],[-69.5889,43.7748]]],[[[-69.6022,43.7947],[-69.5996,43.7907],[-69.5939,43.8041],[-69.6022,43.7947]]],[[[-69.6188,43.7574],[-69.614,43.7511],[-69.6053,43.7803],[-69.6188,43.7574]]],[[[-69.6357,43.8054],[-69.6267,43.8052],[-69.6288,43.8137],[-69.6357,43.8054]]],[[[-69.7603,43.7104],[-69.7572,43.7033],[-69.7543,43.71],[-69.7603,43.7104]]],[[[-69.9415,43.7301],[-69.939,43.7238],[-69.9312,43.7241],[-69.9415,43.7301]]],[[[-69.9941,43.8374],[-69.9903,43.8319],[-69.9865,43.8436],[-69.9941,43.8374]]],[[[-70.0179,43.817],[-70.0094,43.8113],[-69.9968,43.8247],[-70.0179,43.817]]],[[[-70.0376,43.7149],[-70.021,43.7246],[-70.0288,43.7264],[-70.0376,43.7149]]],[[[-70.0488,43.793],[-70.0424,43.7825],[-70.027,43.8091],[-70.0488,43.793]]],[[[-70.049,43.7228],[-70.0467,43.7202],[-70.04,43.7288],[-70.049,43.7228]]],[[[-70.0612,43.7463],[-70.0613,43.7421],[-70.0448,43.7648],[-70.0612,43.7463]]],[[[-70.0609,43.7624],[-70.0533,43.7652],[-70.055,43.7707],[-70.0609,43.7624]]],[[[-70.074,43.7851],[-70.0745,43.7799],[-70.0631,43.7876],[-70.074,43.7851]]],[[[-70.0788,43.7967],[-70.07,43.7967],[-70.0666,43.8043],[-70.0788,43.7967]]],[[[-70.0816,43.7126],[-70.0793,43.707],[-70.0721,43.719],[-70.0816,43.7126]]],[[[-70.0897,43.715],[-70.0842,43.7142],[-70.0797,43.7209],[-70.0897,43.715]]],[[[-70.0961,43.7241],[-70.0895,43.7264],[-70.0864,43.7324],[-70.0961,43.7241]]],[[[-70.1012,43.6755],[-70.096,43.6723],[-70.0873,43.691],[-70.1012,43.6755]]],[[[-70.1146,43.7806],[-70.102,43.7768],[-70.0897,43.7852],[-70.1146,43.7806]]],[[[-70.1182,43.6864],[-70.0937,43.6918],[-70.0931,43.7105],[-70.1182,43.6864]]],[[[-70.1225,43.7044],[-70.1223,43.7001],[-70.1118,43.71],[-70.1225,43.7044]]],[[[-70.1314,43.7916],[-70.1249,43.7908],[-70.1222,43.7938],[-70.1314,43.7916]]],[[[-70.1381,43.7276],[-70.1207,43.7126],[-70.0961,43.7572],[-70.1381,43.7276]]],[[[-70.1532,43.7126],[-70.1467,43.7089],[-70.1445,43.7135],[-70.1532,43.7126]]],[[[-70.1603,43.7497],[-70.1154,43.7647],[-70.1455,43.7758],[-70.1603,43.7497]]],[[[-70.1736,43.6837],[-70.1517,43.6817],[-70.1337,43.7023],[-70.1736,43.6837]]],[[[-70.1876,43.7394],[-70.1798,43.7392],[-70.1767,43.7454],[-70.1876,43.7394]]],[[[-70.1966,43.7152],[-70.1971,43.7112],[-70.1867,43.7233],[-70.1966,43.7152]]],[[[-70.2012,43.6519],[-70.1796,43.6554],[-70.1831,43.6752],[-70.2012,43.6519]]],[[[-70.2097,43.6415],[-70.2059,43.6336],[-70.1907,43.6456],[-70.2097,43.6415]]],[[[-70.2139,43.6662],[-70.1931,43.6734],[-70.1821,43.6949],[-70.2139,43.6662]]],[[[-70.238,43.5473],[-70.2455,43.5396],[-70.2244,43.5472],[-70.238,43.5473]]],[[[-70.6172,42.992],[-70.6078,42.9778],[-70.6013,42.9811],[-70.6172,42.992]]]]}},{"type":"Feature","properties":{"id":"rhode-island","name":"Rhode Island","state":"RI","fips":"44","source":"U.S. Census TIGERweb ACS2023 generalized state layer"},"geometry":{"type":"MultiPolygon","coordinates":[[[[-71.8627,41.3109],[-71.5516,41.3744],[-71.4809,41.3602],[-71.4184,41.4727],[-71.4464,41.5832],[-71.4038,41.5893],[-71.4086,41.6632],[-71.4502,41.6865],[-71.3779,41.6666],[-71.3573,41.7166],[-71.3906,41.7837],[-71.2912,41.7027],[-71.3014,41.65],[-71.2855,41.6824],[-71.2632,41.643],[-71.2384,41.6656],[-71.2248,41.7105],[-71.3407,41.7983],[-71.3387,41.8984],[-71.3817,41.8932],[-71.3814,42.0188],[-71.7992,42.0081],[-71.7977,41.4167],[-71.8426,41.4099],[-71.8294,41.3424],[-71.8627,41.3109]]],[[[-71.288,41.6456],[-71.2853,41.6369],[-71.2721,41.6371],[-71.288,41.6456]]],[[[-71.3015,41.5857],[-71.3008,41.5806],[-71.2972,41.5798],[-71.3015,41.5857]]],[[[-71.3276,41.4529],[-71.3243,41.4539],[-71.3263,41.4547],[-71.3276,41.4529]]],[[[-71.3288,41.4923],[-71.3278,41.483],[-71.3254,41.4876],[-71.3288,41.4923]]],[[[-71.3431,41.4973],[-71.3387,41.4949],[-71.3413,41.5005],[-71.3431,41.4973]]],[[[-71.3459,41.537],[-71.3459,41.5296],[-71.3426,41.529],[-71.3459,41.537]]],[[[-71.3538,41.6475],[-71.3167,41.5831],[-71.3081,41.6262],[-71.3448,41.667],[-71.3538,41.6475]]],[[[-71.3629,41.4617],[-71.2404,41.4761],[-71.2407,41.6192],[-71.2193,41.6255],[-71.194,41.4564],[-71.1206,41.4974],[-71.1329,41.6601],[-71.1956,41.6751],[-71.2118,41.6391],[-71.2719,41.624],[-71.328,41.5188],[-71.3165,41.4776],[-71.3629,41.4617]]],[[[-71.367,41.6607],[-71.36,41.6499],[-71.3534,41.6579],[-71.367,41.6607]]],[[[-71.3722,41.5999],[-71.3648,41.6014],[-71.3634,41.6067],[-71.3722,41.5999]]],[[[-71.4006,41.4609],[-71.3543,41.4789],[-71.3702,41.574],[-71.4006,41.4609]]],[[[-71.4051,41.4982],[-71.3974,41.5062],[-71.4036,41.5046],[-71.4051,41.4982]]],[[[-71.6131,41.1603],[-71.5471,41.1537],[-71.5625,41.2242],[-71.6131,41.1603]]]]}},{"type":"Feature","properties":{"id":"massachusetts","name":"Massachusetts","state":"MA","fips":"25","source":"U.S. Census TIGERweb ACS2023 generalized state layer"},"geometry":{"type":"MultiPolygon","coordinates":[[[[-73.5081,42.0863],[-73.4969,42.0497],[-72.8135,42.0365],[-72.8167,41.9976],[-72.7667,42.003],[-72.7558,42.0362],[-71.3814,42.0188],[-71.3817,41.8932],[-71.3387,41.8984],[-71.3407,41.7983],[-71.1957,41.6751],[-71.1329,41.6601],[-71.1206,41.4974],[-71.0707,41.5089],[-71.0384,41.4811],[-70.9285,41.5398],[-70.9502,41.5846],[-70.9305,41.6133],[-70.9021,41.5916],[-70.9132,41.6193],[-70.8727,41.6278],[-70.8548,41.5824],[-70.8597,41.6241],[-70.8011,41.6295],[-70.8216,41.6548],[-70.7655,41.6416],[-70.7489,41.6974],[-70.7156,41.6753],[-70.7187,41.7357],[-70.6566,41.7154],[-70.6741,41.6914],[-70.6488,41.718],[-70.6176,41.7011],[-70.662,41.6809],[-70.6205,41.6573],[-70.6507,41.6461],[-70.6409,41.5773],[-70.687,41.5295],[-70.6566,41.5148],[-70.4856,41.5542],[-70.3516,41.6347],[-70.2813,41.6351],[-70.2654,41.6093],[-70.1952,41.6479],[-70.0142,41.672],[-69.9705,41.6455],[-70.0039,41.5406],[-69.9284,41.7084],[-69.9686,41.9117],[-70.0826,42.0547],[-70.1893,42.0823],[-70.2454,42.0637],[-70.1908,42.02],[-70.1554,42.0624],[-70.0956,42.0328],[-70.069,41.8849],[-70.045,41.93],[-70.0002,41.8869],[-70.0085,41.8008],[-70.2161,41.743],[-70.2512,41.7073],[-70.3573,41.7025],[-70.3964,41.7279],[-70.2739,41.7243],[-70.494,41.7739],[-70.541,41.8158],[-70.5392,41.9268],[-70.6239,41.9431],[-70.6525,41.9789],[-70.6468,41.9493],[-70.71,41.9995],[-70.6509,42.0462],[-70.6142,42.0111],[-70.6391,41.9939],[-70.5979,42.0046],[-70.7663,42.2547],[-70.8511,42.2683],[-70.8827,42.3104],[-70.9239,42.305],[-70.8873,42.2977],[-70.8843,42.2455],[-70.9182,42.2719],[-70.9621,42.2464],[-70.9532,42.2799],[-71.0223,42.2882],[-70.9905,42.308],[-71.0393,42.2855],[-71.0476,42.3281],[-71.0102,42.3376],[-71.0506,42.3729],[-71.0078,42.3471],[-70.9728,42.3719],[-70.953,42.344],[-70.983,42.424],[-70.9437,42.4583],[-70.9364,42.4181],[-70.9057,42.4162],[-70.935,42.4579],[-70.836,42.4905],[-70.8421,42.5195],[-70.8864,42.5086],[-70.8752,42.5443],[-70.7103,42.5726],[-70.6767,42.6075],[-70.6547,42.5822],[-70.5915,42.6398],[-70.6301,42.6927],[-70.6846,42.6518],[-70.7761,42.6913],[-70.8173,42.8723],[-70.9028,42.8865],[-71.0312,42.8591],[-71.0642,42.8063],[-71.1656,42.8087],[-71.1818,42.7376],[-71.2455,42.7426],[-71.2942,42.697],[-73.265,42.7459],[-73.5081,42.0863]]],[[[-70.2341,41.2857],[-70.1005,41.2406],[-69.9602,41.2645],[-70.0491,41.3917],[-70.0244,41.3606],[-70.0626,41.3087],[-70.2341,41.2857]]],[[[-70.2767,41.3113],[-70.2427,41.2892],[-70.2466,41.3062],[-70.2767,41.3113]]],[[[-70.309,41.3361],[-70.307,41.3324],[-70.2893,41.335],[-70.309,41.3361]]],[[[-70.5803,42.636],[-70.5756,42.6345],[-70.5734,42.6395],[-70.5803,42.636]]],[[[-70.5922,42.6295],[-70.5868,42.6282],[-70.5882,42.6306],[-70.5922,42.6295]]],[[[-70.5937,42.6605],[-70.59,42.659],[-70.5876,42.6619],[-70.5937,42.6605]]],[[[-70.7231,42.5682],[-70.7217,42.5661],[-70.7206,42.5697],[-70.7231,42.5682]]],[[[-70.7831,42.5535],[-70.7823,42.5518],[-70.7807,42.5536],[-70.7831,42.5535]]],[[[-70.7888,42.534],[-70.7877,42.5306],[-70.7823,42.5337],[-70.7888,42.534]]],[[[-70.8022,42.551],[-70.8021,42.5472],[-70.7944,42.548],[-70.8022,42.551]]],[[[-70.8071,41.4586],[-70.6752,41.5139],[-70.7102,41.5189],[-70.8071,41.4586]]],[[[-70.8174,42.514],[-70.8121,42.5103],[-70.8121,42.512],[-70.8174,42.514]]],[[[-70.832,41.2595],[-70.8092,41.2491],[-70.8016,41.2584],[-70.832,41.2595]]],[[[-70.8356,42.4838],[-70.8335,42.482],[-70.8337,42.4853],[-70.8356,42.4838]]],[[[-70.8357,41.6023],[-70.8221,41.5836],[-70.824,41.5996],[-70.8357,41.6023]]],[[[-70.8388,41.3472],[-70.7757,41.301],[-70.7098,41.3417],[-70.4522,41.3498],[-70.4462,41.3965],[-70.4525,41.4214],[-70.5013,41.3854],[-70.6036,41.4824],[-70.701,41.434],[-70.775,41.3492],[-70.8388,41.3472]]],[[[-70.8404,41.4529],[-70.8081,41.445],[-70.8206,41.4585],[-70.8404,41.4529]]],[[[-70.8834,42.3405],[-70.876,42.3412],[-70.874,42.3436],[-70.8834,42.3405]]],[[[-70.8918,42.3389],[-70.8875,42.3382],[-70.8848,42.3393],[-70.8918,42.3389]]],[[[-70.8923,42.3284],[-70.892,42.3272],[-70.8888,42.3285],[-70.8923,42.3284]]],[[[-70.8984,42.3403],[-70.8952,42.3389],[-70.8956,42.3439],[-70.8984,42.3403]]],[[[-70.8984,42.3312],[-70.8961,42.3304],[-70.8941,42.335],[-70.8984,42.3312]]],[[[-70.9036,41.4308],[-70.8486,41.4328],[-70.8571,41.4503],[-70.9036,41.4308]]],[[[-70.9254,41.4517],[-70.9212,41.4454],[-70.9152,41.451],[-70.9254,41.4517]]],[[[-70.9309,42.3216],[-70.9253,42.3172],[-70.926,42.3219],[-70.9309,42.3216]]],[[[-70.9321,42.3327],[-70.9314,42.3283],[-70.9226,42.3261],[-70.9321,42.3327]]],[[[-70.9428,42.3272],[-70.9399,42.3242],[-70.9349,42.3268],[-70.9428,42.3272]]],[[[-70.9492,41.4158],[-70.9086,41.4224],[-70.9275,41.4318],[-70.9492,41.4158]]],[[[-70.9511,42.2897],[-70.9373,42.2849],[-70.9264,42.3014],[-70.9511,42.2897]]],[[[-70.9581,42.3117],[-70.9543,42.3086],[-70.9485,42.3119],[-70.9581,42.3117]]],[[[-70.9774,42.3123],[-70.9657,42.3135],[-70.9528,42.3306],[-70.9774,42.3123]]],[[[-70.9892,42.3283],[-70.9857,42.3187],[-70.9831,42.3272],[-70.9892,42.3283]]],[[[-71.0166,42.3137],[-71.0115,42.3093],[-70.9995,42.3199],[-71.0166,42.3137]]]]}}]}
