{
  "type": "FeatureCollection",
  "name": "ocean-zones",
  "features": [
    {
      "type": "Feature",
      "id": "atlantic-ocean",
      "properties": {
        "id": "atlantic-ocean",
        "name": "Atlantic Ocean",
        "ocean": "atlantic-ocean",
        "editedAt": "2026-05-23T00:48:02.054Z",
        "source": "manual-ocean-boundary-editor"
      },
      "geometry": {
        "type": "Polygon",
        "coordinates": [
          [
            [
              -97.090912,
              18.906217
            ],
            [
              -99.060608,
              23.604145
            ],
            [
              -101.030304,
              28.302072
            ],
            [
              -103,
              33
            ],
            [
              -97.75,
              34.25
            ],
            [
              -92.5,
              35.5
            ],
            [
              -87.25,
              36.75
            ],
            [
              -82,
              38
            ],
            [
              -77.5,
              42.5
            ],
            [
              -73,
              47
            ],
            [
              -78.328713,
              49.527487
            ],
            [
              -83.657426,
              52.054975
            ],
            [
              -88.986138,
              54.582462
            ],
            [
              -94.314851,
              57.109949
            ],
            [
              -96.321441,
              62.209663
            ],
            [
              -98.328031,
              67.309378
            ],
            [
              -93.20832,
              67.419438
            ],
            [
              -88.08861,
              67.529498
            ],
            [
              -82.968899,
              67.639558
            ],
            [
              -77.849188,
              67.749618
            ],
            [
              -72.729478,
              67.859678
            ],
            [
              -67.609767,
              67.969739
            ],
            [
              -62.490057,
              68.079799
            ],
            [
              -57.370346,
              68.189859
            ],
            [
              -52.250635,
              68.299919
            ],
            [
              -47.130925,
              68.409979
            ],
            [
              -42.011214,
              68.520039
            ],
            [
              -37.34767,
              68.392043
            ],
            [
              -32.684126,
              68.264047
            ],
            [
              -28.020582,
              68.13605
            ],
            [
              -23.357037,
              68.008054
            ],
            [
              -18.693493,
              67.880058
            ],
            [
              -14.029949,
              67.752062
            ],
            [
              -8.661952,
              67.771282
            ],
            [
              -3.293956,
              67.790501
            ],
            [
              2.074041,
              67.80972
            ],
            [
              7.442037,
              67.82894
            ],
            [
              12.810034,
              67.848159
            ],
            [
              18.17803,
              67.867379
            ],
            [
              23.546026,
              67.886598
            ],
            [
              28.914023,
              67.905818
            ],
            [
              34.28202,
              67.925037
            ],
            [
              39.650016,
              67.944257
            ],
            [
              36.01667,
              63.435468
            ],
            [
              32.383325,
              58.92668
            ],
            [
              28.749979,
              54.417891
            ],
            [
              25.116634,
              49.909103
            ],
            [
              21.483288,
              45.400314
            ],
            [
              26.497303,
              42.439127
            ],
            [
              31.511319,
              39.477939
            ],
            [
              36.525334,
              36.516752
            ],
            [
              36.619058,
              32.640476
            ],
            [
              36.712782,
              28.764201
            ],
            [
              31.748684,
              29.168676
            ],
            [
              26.784586,
              29.573151
            ],
            [
              21.820489,
              29.977626
            ],
            [
              16.856391,
              30.3821
            ],
            [
              11.892293,
              30.786575
            ],
            [
              6.928196,
              31.19105
            ],
            [
              1.964098,
              31.595525
            ],
            [
              -3,
              32
            ],
            [
              -6.992959,
              27.545737
            ],
            [
              -10.985919,
              23.091474
            ],
            [
              -14.978878,
              18.637211
            ],
            [
              -11.489439,
              13.318606
            ],
            [
              -8,
              8
            ],
            [
              -3.291802,
              7.560944
            ],
            [
              1.416396,
              7.121887
            ],
            [
              6.124593,
              6.682831
            ],
            [
              10.832791,
              6.243775
            ],
            [
              12.11654,
              1.312682
            ],
            [
              13.400289,
              -3.61841
            ],
            [
              14.684038,
              -8.549503
            ],
            [
              15.778201,
              -13.799285
            ],
            [
              16.872365,
              -19.049068
            ],
            [
              17.966528,
              -24.29885
            ],
            [
              19.060692,
              -29.548633
            ],
            [
              20.154855,
              -34.798415
            ],
            [
              20.281951,
              -39.888324
            ],
            [
              20.409046,
              -44.978233
            ],
            [
              20.536142,
              -50.068143
            ],
            [
              20.663237,
              -55.158052
            ],
            [
              20.790333,
              -60.247961
            ],
            [
              15.298293,
              -60.254479
            ],
            [
              9.806252,
              -60.260996
            ],
            [
              4.314212,
              -60.267514
            ],
            [
              -1.177828,
              -60.274031
            ],
            [
              -6.669869,
              -60.280549
            ],
            [
              -12.161909,
              -60.287067
            ],
            [
              -17.653949,
              -60.293584
            ],
            [
              -23.14599,
              -60.300102
            ],
            [
              -28.63803,
              -60.30662
            ],
            [
              -34.13007,
              -60.313137
            ],
            [
              -39.62211,
              -60.319655
            ],
            [
              -45.114151,
              -60.326172
            ],
            [
              -50.606191,
              -60.33269
            ],
            [
              -56.098231,
              -60.339208
            ],
            [
              -61.590272,
              -60.345725
            ],
            [
              -67.082312,
              -60.352243
            ],
            [
              -68.712249,
              -55.779947
            ],
            [
              -70.342185,
              -51.207651
            ],
            [
              -69.591615,
              -48.231085
            ],
            [
              -68.841045,
              -45.254519
            ],
            [
              -67.086106,
              -41.555324
            ],
            [
              -65.331167,
              -37.856129
            ],
            [
              -60.709691,
              -34.539014
            ],
            [
              -56.088216,
              -31.221899
            ],
            [
              -51.46674,
              -27.904784
            ],
            [
              -48.31116,
              -23.936523
            ],
            [
              -45.15558,
              -19.968261
            ],
            [
              -42,
              -16
            ],
            [
              -39.723304,
              -10.87456
            ],
            [
              -37.446608,
              -5.749119
            ],
            [
              -42.496099,
              -4.801764
            ],
            [
              -47.545589,
              -3.85441
            ],
            [
              -51.032465,
              0.128648
            ],
            [
              -54.519341,
              4.111705
            ],
            [
              -59.39215,
              5.566231
            ],
            [
              -64.264959,
              7.020757
            ],
            [
              -69.137768,
              8.475283
            ],
            [
              -72.832416,
              8.464448
            ],
            [
              -76.527065,
              8.453614
            ],
            [
              -79.085017,
              9.441688
            ],
            [
              -81.566476,
              8.624103
            ],
            [
              -83.802624,
              9.953904
            ],
            [
              -84,
              13
            ],
            [
              -87.394863,
              14.825499
            ],
            [
              -90.789725,
              16.650998
            ],
            [
              -93.940319,
              17.778607
            ],
            [
              -97.090912,
              18.906217
            ]
          ]
        ]
      }
    },
      {
        "type": "Feature",
        "id": "pacific-ocean",
        "properties": {
          "id": "pacific-ocean",
          "name": "Pacific Ocean",
          "ocean": "pacific-ocean",
          "editedAt": "2026-05-23T02:43:42.323Z",
          "source": "manual-ocean-boundary-editor"
        },
        "geometry": {
          "type": "MultiPolygon",
          "coordinates": [
            [
              [
                [-179.931696, -60.021321],
                [-67.281823, -60.44058],
                [-72.249799, -49.343967],
                [-70, -44],
                [-70.627566, -34.440256],
                [-68.841109, -21.602397],
                [-70.297565, -17.518008],
                [-77, -12],
                [-78, 0],
                [-76.146253, 7.764282],
                [-79.045181, 9.209082],
                [-81.352527, 8.611945],
                [-83, 9],
                [-85.748492, 11.314966],
                [-87.432151, 13.400199],
                [-94, 16],
                [-104, 21],
                [-112.260709, 30.421174],
                [-120.96757, 48.447936],
                [-133.278621, 68.419593],
                [-179.827627, 68.223092],
                [-179.931696, -60.021321]
              ]
            ],
            [
              [
                [146.892766, -60.608349],
                [179.946805, -60.073134],
                [179.470006, 68.070586],
                [136, 64],
                [118, 52],
                [105.800618, 29.908385],
                [98.062466, 15.301642],
                [96.222215, 4.809676],
                [106.209394, -6.790702],
                [123.786928, -10.459371],
                [125.55559, -15.796908],
                [142.476604, -39.677763],
                [145.307373, -44.117005],
                [146.892766, -60.608349]
              ]
            ]
          ]
        }
    },
      {
        "type": "Feature",
        "id": "indian-ocean",
        "properties": {
          "id": "indian-ocean",
          "name": "Indian Ocean",
          "ocean": "indian-ocean",
          "editedAt": "2026-05-23T02:19:54.692Z",
          "source": "manual-ocean-boundary-editor"
        },
        "geometry": {
          "type": "Polygon",
          "coordinates": [
            [
              [20.389432, -60.477655],
              [25.887299, -60.483333],
              [31.385166, -60.489011],
              [36.883034, -60.494689],
              [42.380901, -60.500367],
              [47.878768, -60.506045],
              [53.376635, -60.511723],
              [58.874503, -60.517401],
              [64.37237, -60.523079],
              [69.870237, -60.528757],
              [75.368104, -60.534435],
              [80.865971, -60.540113],
              [86.363839, -60.545791],
              [91.861706, -60.551469],
              [97.359573, -60.557147],
              [102.85744, -60.562825],
              [108.355307, -60.568503],
              [113.853175, -60.574181],
              [119.351042, -60.579859],
              [124.848909, -60.585537],
              [130.346776, -60.591215],
              [135.844644, -60.596893],
              [141.342511, -60.602571],
              [146.840378, -60.608249],
              [146.457754, -56.461795],
              [146.07513, -52.315341],
              [145.692506, -48.168887],
              [145.309882, -44.022433],
              [142.011769, -39.324764],
              [138.713657, -34.627096],
              [135.415544, -29.929427],
              [132.117431, -25.231758],
              [128.819319, -20.53409],
              [125.521206, -15.836421],
              [123.85902, -10.563102],
              [119.143153, -9.492048],
              [114.427287, -8.420994],
              [109.711421, -7.34994],
              [104.995554, -6.278886],
              [102.051588, -2.601042],
              [99.107623, 1.076802],
              [96.163657, 4.754646],
              [97.122743, 10.065984],
              [98.081829, 15.377323],
              [99.040914, 20.688661],
              [100, 26],
              [94.5, 27.5],
              [89, 29],
              [83.5, 30.5],
              [78, 32],
              [73.382954, 30.758654],
              [68.765908, 29.517308],
              [64.148863, 28.275961],
              [59.531817, 27.034615],
              [54.076129, 22.077757],
              [48.620442, 17.120899],
              [43.164754, 12.164041],
              [38.776503, 10.776027],
              [34.388251, 9.388014],
              [30, 8],
              [27.5, 3.5],
              [25, -1],
              [22.5, -5.5],
              [20, -10],
              [20.086382, -14.838112],
              [20.172764, -19.676224],
              [20.259146, -24.514336],
              [20.345528, -29.352449],
              [20.43191, -34.190561],
              [20.518292, -39.028673],
              [20.486077, -44.390918],
              [20.453862, -49.753164],
              [20.421647, -55.115409],
              [20.389432, -60.477655]
            ]
          ]
        }
      },
    {
      "type": "Feature",
      "id": "arctic-ocean",
      "properties": {
        "id": "arctic-ocean",
        "name": "Arctic Ocean",
        "ocean": "arctic-ocean",
        "editedAt": "2026-05-23T01:49:05.578Z",
        "source": "manual-ocean-boundary-editor"
      },
      "geometry": {
        "type": "Polygon",
        "coordinates": [
          [
            [-180, 67.776818],
            [-120, 67.776818],
            [-60, 67.776818],
            [0, 67.776818],
            [60, 67.776818],
            [120, 67.776818],
            [180, 67.776818],
            [180, 89.5],
            [120, 89.5],
            [60, 89.5],
            [0, 89.5],
            [-60, 89.5],
            [-120, 89.5],
            [-180, 89.5],
            [-180, 67.776818]
          ]
        ]
      }
    },
      {
        "type": "Feature",
        "id": "southern-ocean",
        "properties": {
          "id": "southern-ocean",
          "name": "Southern Ocean",
          "ocean": "southern-ocean",
          "editedAt": "2026-05-23T02:08:56.423Z",
          "source": "manual-ocean-boundary-editor"
        },
        "geometry": {
          "type": "Polygon",
          "coordinates": [
            [
              [-180, -60.961561],
              [-120, -60.961561],
              [-60, -60.961561],
              [0, -60.961561],
              [60, -60.961561],
              [120, -60.961561],
              [180, -60.961561],
              [180, -89.5],
              [120, -89.5],
              [60, -89.5],
              [0, -89.5],
              [-60, -89.5],
              [-120, -89.5],
              [-180, -89.5],
              [-180, -60.961561]
            ]
          ]
        }
      }
  ]
}
