{
  "type": "FeatureCollection",
  "features": [
    {
      "type": "Feature",
      "properties": {
        "id": "ural-boundary",
        "name": "Ural Boundary",
        "description": "Simplified educational Europe/Asia boundary following the Ural Mountains and Ural River area."
      },
      "geometry": {
        "type": "LineString",
        "coordinates": [
          [58.0, 70.0],
          [59.5, 66.5],
          [59.5, 63.0],
          [58.5, 60.0],
          [57.5, 57.0],
          [56.0, 54.0],
          [55.0, 51.0],
          [53.0, 48.0],
          [51.5, 46.0],
          [50.5, 44.0],
          [49.0, 38.0]
        ]
      }
    }
  ]
}
